STARLINK-35578          
1 66168U 25240Y   25312.16668980 -.01866931  00000+0 -15803-1 0  9990
2 66168  53.1592 270.5183 0001125  79.9362  44.9425 15.72392859  3344
STARLINK-35638          
1 66169U 25240Z   25312.16668980 -.01867441  00000+0 -15806-1 0  9991
2 66169  53.1593 270.5262 0001479  79.0273  42.0167 15.72392328  3341
STARLINK-35585          
1 66170U 25240AA  25312.16668980 -.01858330  00000+0 -15723-1 0  9998
2 66170  53.1592 270.5149 0001178  68.0030  58.7936 15.72386790  3345
STARLINK-35606          
1 66171U 25240AB  25312.16668980 -.01857872  00000+0 -15721-1 0  9997
2 66171  53.1593 270.5100 0001055  82.5437  46.1720 15.72385383  3349
STARLINK-35627          
1 66172U 25240AC  25312.16668980 -.01867064  00000+0 -15804-1 0  9994
2 66172  53.1593 270.5220 0001120  73.0148  49.9444 15.72393936  3347
STARLINK-35634          
1 66173U 25240AD  25312.16668980 -.01864278  00000+0 -15779-1 0  9990
2 66173  53.1590 270.5060 0001131  67.7851  62.8447 15.72389990  3342
HTV-X1                  
1 66174U 25241A   25311.19511068  .00011482  00000+0  21019-3 0  9992
2 66174  51.6334 318.4356 0005154  25.9626 334.1621 15.49813276  1459
GAOFEN-14 02            
1 66175U 25242A   25306.93661115  .00011497  00000+0  43020-3 0  9991
2 66175  97.4418  19.1026 0010483 237.3097 122.7131 15.27424189  1197
CZ-3B R/B               
1 66176U 25242B   25309.65934494  .00029904  00000+0  58815-3 0  9997
2 66176  97.4571  21.8726 0103778   5.1082 355.1197 15.41457457  1622
STARLINK-35352          
1 66177U 25243A   25311.66876791  .02486324  00000+0  11533-1 0  9997
2 66177  53.1528  96.2007 0011206 245.5814 114.4039 15.79470921  1914
STARLINK-35363          
1 66178U 25243B   25311.85972157 -.02096598  00000+0 -15124-1 0  9994
2 66178  53.1528  95.2576 0003799  16.3059 343.8083 15.75857760  1944
STARLINK-35346          
1 66179U 25243C   25312.11197117  .00887315  00000+0  40577-2 0  9992
2 66179  53.1530  93.9870 0014327 307.2251  52.7464 15.80785988  1986
