CCSDS_OMM_VERS = 2.0
CREATION_DATE  = 
ORIGINATOR     = 

OBJECT_NAME    = STARLINK-35578
OBJECT_ID      = 2025-240Y
CENTER_NAME    = EARTH
REF_FRAME      = TEME
TIME_SYSTEM    = UTC
MEAN_ELEMENT_THEORY = SGP/SGP4

EPOCH          = 2025-11-08T04:00:01.998720
MEAN_MOTION    = 15.72392859
ECCENTRICITY   = .0001125
INCLINATION    = 53.1592
RA_OF_ASC_NODE = 270.5183
ARG_OF_PERICENTER = 79.9362
MEAN_ANOMALY   = 44.9425

EPHEMERIS_TYPE = 0
CLASSIFICATION_TYPE = U
NORAD_CAT_ID   = 66168
ELEMENT_SET_NO = 999
REV_AT_EPOCH   = 334
BSTAR          = -.15803E-1
MEAN_MOTION_DOT = -.1866931E-1
MEAN_MOTION_DDOT = 0

CCSDS_OMM_VERS = 2.0
CREATION_DATE  = 
ORIGINATOR     = 

OBJECT_NAME    = STARLINK-35638
OBJECT_ID      = 2025-240Z
CENTER_NAME    = EARTH
REF_FRAME      = TEME
TIME_SYSTEM    = UTC
MEAN_ELEMENT_THEORY = SGP/SGP4

EPOCH          = 2025-11-08T04:00:01.998720
MEAN_MOTION    = 15.72392328
ECCENTRICITY   = .0001479
INCLINATION    = 53.1593
RA_OF_ASC_NODE = 270.5262
ARG_OF_PERICENTER = 79.0273
MEAN_ANOMALY   = 42.0167

EPHEMERIS_TYPE = 0
CLASSIFICATION_TYPE = U
NORAD_CAT_ID   = 66169
ELEMENT_SET_NO = 999
REV_AT_EPOCH   = 334
BSTAR          = -.15806E-1
MEAN_MOTION_DOT = -.1867441E-1
MEAN_MOTION_DDOT = 0

CCSDS_OMM_VERS = 2.0
CREATION_DATE  = 
ORIGINATOR     = 

OBJECT_NAME    = STARLINK-35585
OBJECT_ID      = 2025-240AA
CENTER_NAME    = EARTH
REF_FRAME      = TEME
TIME_SYSTEM    = UTC
MEAN_ELEMENT_THEORY = SGP/SGP4

EPOCH          = 2025-11-08T04:00:01.998720
MEAN_MOTION    = 15.72386790
ECCENTRICITY   = .0001178
INCLINATION    = 53.1592
RA_OF_ASC_NODE = 270.5149
ARG_OF_PERICENTER = 68.0030
MEAN_ANOMALY   = 58.7936

EPHEMERIS_TYPE = 0
CLASSIFICATION_TYPE = U
NORAD_CAT_ID   = 66170
ELEMENT_SET_NO = 999
REV_AT_EPOCH   = 334
BSTAR          = -.15723E-1
MEAN_MOTION_DOT = -.185833E-1
MEAN_MOTION_DDOT = 0

CCSDS_OMM_VERS = 2.0
CREATION_DATE  = 
ORIGINATOR     = 

OBJECT_NAME    = STARLINK-35606
OBJECT_ID      = 2025-240AB
CENTER_NAME    = EARTH
REF_FRAME      = TEME
TIME_SYSTEM    = UTC
MEAN_ELEMENT_THEORY = SGP/SGP4

EPOCH          = 2025-11-08T04:00:01.998720
MEAN_MOTION    = 15.72385383
ECCENTRICITY   = .0001055
INCLINATION    = 53.1593
RA_OF_ASC_NODE = 270.5100
ARG_OF_PERICENTER = 82.5437
MEAN_ANOMALY   = 46.1720

EPHEMERIS_TYPE = 0
CLASSIFICATION_TYPE = U
NORAD_CAT_ID   = 66171
ELEMENT_SET_NO = 999
REV_AT_EPOCH   = 334
BSTAR          = -.15721E-1
MEAN_MOTION_DOT = -.1857872E-1
MEAN_MOTION_DDOT = 0

CCSDS_OMM_VERS = 2.0
CREATION_DATE  = 
ORIGINATOR     = 

OBJECT_NAME    = STARLINK-35627
OBJECT_ID      = 2025-240AC
CENTER_NAME    = EARTH
REF_FRAME      = TEME
TIME_SYSTEM    = UTC
MEAN_ELEMENT_THEORY = SGP/SGP4

EPOCH          = 2025-11-08T04:00:01.998720
MEAN_MOTION    = 15.72393936
ECCENTRICITY   = .000112
INCLINATION    = 53.1593
RA_OF_ASC_NODE = 270.5220
ARG_OF_PERICENTER = 73.0148
MEAN_ANOMALY   = 49.9444

EPHEMERIS_TYPE = 0
CLASSIFICATION_TYPE = U
NORAD_CAT_ID   = 66172
ELEMENT_SET_NO = 999
REV_AT_EPOCH   = 334
BSTAR          = -.15804E-1
MEAN_MOTION_DOT = -.1867064E-1
MEAN_MOTION_DDOT = 0

CCSDS_OMM_VERS = 2.0
CREATION_DATE  = 
ORIGINATOR     = 

OBJECT_NAME    = STARLINK-35634
OBJECT_ID      = 2025-240AD
CENTER_NAME    = EARTH
REF_FRAME      = TEME
TIME_SYSTEM    = UTC
MEAN_ELEMENT_THEORY = SGP/SGP4

EPOCH          = 2025-11-08T04:00:01.998720
MEAN_MOTION    = 15.72389990
ECCENTRICITY   = .0001131
INCLINATION    = 53.1590
RA_OF_ASC_NODE = 270.5060
ARG_OF_PERICENTER = 67.7851
MEAN_ANOMALY   = 62.8447

EPHEMERIS_TYPE = 0
CLASSIFICATION_TYPE = U
NORAD_CAT_ID   = 66173
ELEMENT_SET_NO = 999
REV_AT_EPOCH   = 334
BSTAR          = -.15779E-1
MEAN_MOTION_DOT = -.1864278E-1
MEAN_MOTION_DDOT = 0

CCSDS_OMM_VERS = 2.0
CREATION_DATE  = 
ORIGINATOR     = 

OBJECT_NAME    = HTV-X1
OBJECT_ID      = 2025-241A
CENTER_NAME    = EARTH
REF_FRAME      = TEME
TIME_SYSTEM    = UTC
MEAN_ELEMENT_THEORY = SGP/SGP4

EPOCH          = 2025-11-07T04:40:57.562752
MEAN_MOTION    = 15.49813276
ECCENTRICITY   = .00051549
INCLINATION    = 51.6334
RA_OF_ASC_NODE = 318.4356
ARG_OF_PERICENTER = 25.9626
MEAN_ANOMALY   = 334.1621

EPHEMERIS_TYPE = 0
CLASSIFICATION_TYPE = U
NORAD_CAT_ID   = 66174
ELEMENT_SET_NO = 999
REV_AT_EPOCH   = 145
BSTAR          = .21019107E-3
MEAN_MOTION_DOT = .11482E-3
MEAN_MOTION_DDOT = 0

CCSDS_OMM_VERS = 2.0
CREATION_DATE  = 
ORIGINATOR     = 

OBJECT_NAME    = GAOFEN-14 02
OBJECT_ID      = 2025-242A
CENTER_NAME    = EARTH
REF_FRAME      = TEME
TIME_SYSTEM    = UTC
MEAN_ELEMENT_THEORY = SGP/SGP4

EPOCH          = 2025-11-02T22:28:43.203360
MEAN_MOTION    = 15.27424189
ECCENTRICITY   = .00104839
INCLINATION    = 97.4418
RA_OF_ASC_NODE = 19.1026
ARG_OF_PERICENTER = 237.3097
MEAN_ANOMALY   = 122.7131

EPHEMERIS_TYPE = 0
CLASSIFICATION_TYPE = U
NORAD_CAT_ID   = 66175
ELEMENT_SET_NO = 999
REV_AT_EPOCH   = 119
BSTAR          = .43019643E-3
MEAN_MOTION_DOT = .11497E-3
MEAN_MOTION_DDOT = 0

CCSDS_OMM_VERS = 2.0
CREATION_DATE  = 
ORIGINATOR     = 

OBJECT_NAME    = CZ-3B R/B
OBJECT_ID      = 2025-242B
CENTER_NAME    = EARTH
REF_FRAME      = TEME
TIME_SYSTEM    = UTC
MEAN_ELEMENT_THEORY = SGP/SGP4

EPOCH          = 2025-11-05T15:49:27.402816
MEAN_MOTION    = 15.41457457
ECCENTRICITY   = .01037786
INCLINATION    = 97.4571
RA_OF_ASC_NODE = 21.8726
ARG_OF_PERICENTER = 5.1082
MEAN_ANOMALY   = 355.1197

EPHEMERIS_TYPE = 0
CLASSIFICATION_TYPE = U
NORAD_CAT_ID   = 66176
ELEMENT_SET_NO = 999
REV_AT_EPOCH   = 162
BSTAR          = .58814912E-3
MEAN_MOTION_DOT = .29904E-3
MEAN_MOTION_DDOT = 0

CCSDS_OMM_VERS = 2.0
CREATION_DATE  = 
ORIGINATOR     = 

OBJECT_NAME    = STARLINK-35352
OBJECT_ID      = 2025-243A
CENTER_NAME    = EARTH
REF_FRAME      = TEME
TIME_SYSTEM    = UTC
MEAN_ELEMENT_THEORY = SGP/SGP4

EPOCH          = 2025-11-07T16:03:01.547424
MEAN_MOTION    = 15.79470921
ECCENTRICITY   = .0011206
INCLINATION    = 53.1528
RA_OF_ASC_NODE = 96.2007
ARG_OF_PERICENTER = 245.5814
MEAN_ANOMALY   = 114.4039

EPHEMERIS_TYPE = 0
CLASSIFICATION_TYPE = U
NORAD_CAT_ID   = 66177
ELEMENT_SET_NO = 999
REV_AT_EPOCH   = 191
BSTAR          = .11533E-1
MEAN_MOTION_DOT = .2486324E-1
MEAN_MOTION_DDOT = 0

CCSDS_OMM_VERS = 2.0
CREATION_DATE  = 
ORIGINATOR     = 

OBJECT_NAME    = STARLINK-35363
OBJECT_ID      = 2025-243B
CENTER_NAME    = EARTH
REF_FRAME      = TEME
TIME_SYSTEM    = UTC
MEAN_ELEMENT_THEORY = SGP/SGP4

EPOCH          = 2025-11-07T20:37:59.943648
MEAN_MOTION    = 15.75857760
ECCENTRICITY   = .0003799
INCLINATION    = 53.1528
RA_OF_ASC_NODE = 95.2576
ARG_OF_PERICENTER = 16.3059
MEAN_ANOMALY   = 343.8083

EPHEMERIS_TYPE = 0
CLASSIFICATION_TYPE = U
NORAD_CAT_ID   = 66178
ELEMENT_SET_NO = 999
REV_AT_EPOCH   = 194
BSTAR          = -.15124E-1
MEAN_MOTION_DOT = -.2096598E-1
MEAN_MOTION_DDOT = 0

CCSDS_OMM_VERS = 2.0
CREATION_DATE  = 
ORIGINATOR     = 

OBJECT_NAME    = STARLINK-35346
OBJECT_ID      = 2025-243C
CENTER_NAME    = EARTH
REF_FRAME      = TEME
TIME_SYSTEM    = UTC
MEAN_ELEMENT_THEORY = SGP/SGP4

EPOCH          = 2025-11-08T02:41:14.309088
MEAN_MOTION    = 15.80785988
ECCENTRICITY   = .0014327
INCLINATION    = 53.1530
RA_OF_ASC_NODE = 93.9870
ARG_OF_PERICENTER = 307.2251
MEAN_ANOMALY   = 52.7464

EPHEMERIS_TYPE = 0
CLASSIFICATION_TYPE = U
NORAD_CAT_ID   = 66179
ELEMENT_SET_NO = 999
REV_AT_EPOCH   = 198
BSTAR          = .40577E-2
MEAN_MOTION_DOT = .887315E-2
MEAN_MOTION_DDOT = 0

